STARLINK-31076          
1 58736U 24005J   26068.80585591 -.00007828  00000+0 -28151-3 0  9999
2 58736  43.0014 218.9048 0000960 250.7068 109.3680 15.26848336120509
FLOCK 4G-7              
1 62624U 25009R   26068.79996108  .00011422  00000+0  43168-3 0  9991
2 62624  97.3984 150.8270 0001396 336.9783  23.1393 15.27141471 63725
